     2.10           G: GLONASS NAV DATA                     RINEX VERSION / TYPE
teqc  2015Jun23                         20211116 01:25:49UTCPGM / RUN BY / DATE
Linux 2.4.21-27.ELsmp|Opteron|gcc -static|Linux x86_64|=+   COMMENT
  2021    10    23   -9.313225746155D-10                    CORR TO SYSTEM TIME
                                                            END OF HEADER
 9 21 10 24 12 15  0.0 1.990981400013D-05 2.728484105319D-12 4.320000000000D+04
    1.277094042969D+04-1.623703956604D+00 9.313225746155D-10 0.000000000000D+00
    1.666788232422D+04-1.145177841187D+00-0.000000000000D+00-2.000000000000D+00
    1.455554541016D+04 2.732975959778D+00-2.793967723846D-09 0.000000000000D+00
19 21 10 24 12 15  0.0-1.643327996135D-04-9.094947017729D-13 4.320000000000D+04
   -1.878414892578D+04-1.226112365723D+00-0.000000000000D+00 0.000000000000D+00
    1.365046484375D+04 8.085060119629D-01-9.313225746155D-10 3.000000000000D+00
   -1.057270605469D+04 3.220159530640D+00 1.862645149231D-09 0.000000000000D+00
20 21 10 24 12 15  0.0-5.811359733343D-05-0.000000000000D+00 4.368000000000D+04
   -6.365976562500D+02-2.834324836731D+00 1.862645149231D-09 0.000000000000D+00
    1.137294628906D+04 1.334689140320D+00 0.000000000000D+00 2.000000000000D+00
   -2.280963085938D+04 7.470283508301D-01 9.313225746155D-10 0.000000000000D+00
 6 21 10 24 12 45  0.0-1.160148531199D-05-1.818989403546D-12 4.500000000000D+04
    3.875170898438D+03 1.797065734863D-01 9.313225746155D-10 0.000000000000D+00
    2.499750341797D+04 4.196758270264D-01-9.313225746155D-10-4.000000000000D+00
    3.154363769531D+03-3.529035568237D+00-9.313225746155D-10 0.000000000000D+00
18 21 10 24 12 45  0.0 9.484216570854D-05 9.094947017729D-13 4.500000000000D+04
   -2.138095800781D+04 1.418519973755D+00-3.725290298462D-09 0.000000000000D+00
    7.956739746094D+03-6.820201873779D-01-1.862645149231D-09-3.000000000000D+00
    1.138454736328D+04 3.148931503296D+00 9.313225746155D-10 0.000000000000D+00
 5 21 10 24 12 45  0.0 8.123647421598D-05 9.094947017729D-13 4.500000000000D+04
   -6.129016113281D+03-4.199981689453D-03 9.313225746155D-10 0.000000000000D+00
    1.916262792969D+04-2.150940895081D+00-9.313225746155D-10 1.000000000000D+00
   -1.566069091797D+04-2.632140159607D+00 9.313225746155D-10 0.000000000000D+00
 7 21 10 24 12 45  0.0-4.043709486723D-05 0.000000000000D+00 4.500000000000D+04
    9.670322265625D+03 2.681913375854D-01 0.000000000000D+00 0.000000000000D+00
    1.513704003906D+04 2.463523864746D+00-9.313225746155D-10 5.000000000000D+00
    1.811727929688D+04-2.209466934204D+00-1.862645149231D-09 0.000000000000D+00
 9 21 10 24 12 45  0.0 1.991447061300D-05 2.728484105319D-12 4.500000000000D+04
    9.220506835938D+03-2.301622390747D+00 0.000000000000D+00 0.000000000000D+00
    1.456508398438D+04-1.149809837341D+00-9.313225746155D-10-2.000000000000D+00
    1.885157226562D+04 2.009483337402D+00-1.862645149231D-09 0.000000000000D+00
19 21 10 24 12 45  0.0-1.643346622586D-04-9.094947017729D-13 4.500000000000D+04
   -2.022932080078D+04-3.834085464478D-01-9.313225746155D-10 0.000000000000D+00
    1.490178710938D+04 5.378437042236D-01-1.862645149231D-09 3.000000000000D+00
   -4.442774414062D+03 3.546671867371D+00 9.313225746155D-10 0.000000000000D+00
20 21 10 24 12 45  0.0-5.811545997858D-05-0.000000000000D+00 4.500000000000D+04
   -5.329495117188D+03-2.342272758484D+00 9.313225746155D-10 0.000000000000D+00
    1.403994042969D+04 1.591976165771D+00-0.000000000000D+00 2.000000000000D+00
   -2.059934082031D+04 1.692952156067D+00 9.313225746155D-10 0.000000000000D+00
 6 21 10 24 13 15  0.0-1.160521060228D-05-1.818989403546D-12 4.680000000000D+04
    4.107112792969D+03 3.805446624756D-02 9.313225746155D-10 0.000000000000D+00
    2.495429443359D+04-4.611301422119D-01-9.313225746155D-10-4.000000000000D+00
   -3.237858398438D+03-3.527229309082D+00-0.000000000000D+00 0.000000000000D+00
 9 21 10 24 13 15  0.0 1.991819590330D-05 2.728484105319D-12 4.680000000000D+04
    4.585833007812D+03-2.812427520752D+00-9.313225746155D-10 0.000000000000D+00
    1.266486328125D+04-9.285774230957D-01-9.313225746155D-10-2.000000000000D+00
    2.169633154297D+04 1.130803108215D+00-1.862645149231D-09 0.000000000000D+00
 5 21 10 24 13 15  0.0 8.123740553856D-05 9.094947017729D-13 4.680000000000D+04
   -6.503029785156D+03-4.321174621582D-01 9.313225746155D-10 0.000000000000D+00
    1.478358447266D+04-2.671175956726D+00-0.000000000000D+00 1.000000000000D+00
   -1.973102246094D+04-1.861098289490D+00 9.313225746155D-10 0.000000000000D+00
 7 21 10 24 13 15  0.0-4.043802618980D-05 0.000000000000D+00 4.680000000000D+04
    1.038617187500D+04 4.931373596191D-01 0.000000000000D+00 0.000000000000D+00
    1.898597460938D+04 1.781395912170D+00-9.313225746155D-10 5.000000000000D+00
    1.349131689453D+04-2.897264480591D+00-1.862645149231D-09 0.000000000000D+00
19 21 10 24 13 15  0.0-1.643374562263D-04-9.094947017729D-13 4.680000000000D+04
   -2.021309912109D+04 3.787250518799D-01-2.793967723846D-09 0.000000000000D+00
    1.543916894531D+04 2.278518676758D-02-9.313225746155D-10 3.000000000000D+00
    2.030449707031D+03 3.599127769470D+00 9.313225746155D-10 0.000000000000D+00
20 21 10 24 13 15  0.0-5.811639130116D-05-0.000000000000D+00 4.680000000000D+04
   -8.961904785156D+03-1.672944068909D+00 0.000000000000D+00 0.000000000000D+00
    1.695304492188D+04 1.598972320557D+00-9.313225746155D-10 2.000000000000D+00
   -1.679365576172D+04 2.508125305176D+00 9.313225746155D-10 0.000000000000D+00
 6 21 10 24 13 45  0.0-1.160986721516D-05-1.818989403546D-12 4.860000000000D+04
    3.878011718750D+03-3.257761001587D-01 9.313225746155D-10 0.000000000000D+00
    2.339500341797D+04-1.246548652649D+00-9.313225746155D-10-4.000000000000D+00
   -9.379405273438D+03-3.252377510071D+00 0.000000000000D+00 0.000000000000D+00
20 21 10 24 13 45  0.0-5.811825394630D-05-9.094947017729D-13 4.860000000000D+04
   -1.131219140625D+04-9.373302459717D-01-0.000000000000D+00 0.000000000000D+00
    1.962555273438D+04 1.323101043701D+00-9.313225746155D-10 2.000000000000D+00
   -1.168686230469D+04 3.129183769226D+00 1.862645149231D-09 0.000000000000D+00
 5 21 10 24 13 45  0.0 8.123833686113D-05 9.094947017729D-13 4.860000000000D+04
   -7.729120605469D+03-9.336500167847D-01 9.313225746155D-10 0.000000000000D+00
    9.718368652344D+03-2.906285285950D+00-0.000000000000D+00 1.000000000000D+00
   -2.227421630859D+04-9.463815689087D-01 1.862645149231D-09 0.000000000000D+00
 7 21 10 24 13 45  0.0-4.043802618980D-05-0.000000000000D+00 4.860000000000D+04
    1.130745654297D+04 4.892148971558D-01 0.000000000000D+00 0.000000000000D+00
    2.146666699219D+04 9.609479904175D-01-9.313225746155D-10 5.000000000000D+00
    7.821536132812D+03-3.361624717712D+00-1.862645149231D-09 0.000000000000D+00
 9 21 10 24 13 45  0.0 1.992285251617D-05 1.818989403546D-12 4.860000000000D+04
   -7.542451171875D+02-3.074484825134D+00-1.862645149231D-09 0.000000000000D+00
    1.131727001953D+04-5.497951507568D-01-9.313225746155D-10-2.000000000000D+00
    2.286952978516D+04 1.641359329224D-01-9.313225746155D-10 0.000000000000D+00
19 21 10 24 13 45  0.0-1.643393188715D-04-9.094947017729D-13 4.860000000000D+04
   -1.897610693359D+04 9.583168029785D-01-3.725290298462D-09 0.000000000000D+00
    1.487604736328D+04-6.707468032837D-01-9.313225746155D-10 3.000000000000D+00
    8.346806640625D+03 3.373510360718D+00 9.313225746155D-10 0.000000000000D+00
21 21 10 24 13 45  0.0-2.492070198059D-04-2.728484105319D-12 4.983000000000D+04
    4.610836425781D+03-2.044502258301D+00 1.862645149231D-09 0.000000000000D+00
    1.030820751953D+04 2.379196166992D+00-0.000000000000D+00 4.000000000000D+00
   -2.287368164062D+04 6.566343307495D-01 9.313225746155D-10 0.000000000000D+00
 6 21 10 24 14 15  0.0-1.161452382803D-05-1.818989403546D-12 5.040000000000D+04
    2.836536621094D+03-8.515081405640D-01 9.313225746155D-10 0.000000000000D+00
    2.058366601562D+04-1.838148117065D+00-9.313225746155D-10-4.000000000000D+00
   -1.479518994141D+04-2.726136207581D+00 9.313225746155D-10 0.000000000000D+00
20 21 10 24 14 15  0.0-5.812011659145D-05-9.094947017729D-13 5.040000000000D+04
   -1.236727636719D+04-2.529087066650D-01-1.862645149231D-09 0.000000000000D+00
    2.155448095703D+04 7.792358398438D-01-9.313225746155D-10 2.000000000000D+00
   -5.674431152344D+03 3.507815361023D+00 9.313225746155D-10 0.000000000000D+00
 7 21 10 24 14 15  0.0-4.043802618980D-05-0.000000000000D+00 5.040000000000D+04
    1.199625292969D+04 2.350139617920D-01 9.313225746155D-10 0.000000000000D+00
    2.243012060547D+04 1.151094436646D-01-1.862645149231D-09 5.000000000000D+00
    1.545896972656D+03-3.565949440002D+00-9.313225746155D-10 0.000000000000D+00
19 21 10 24 14 15  0.0-1.643421128392D-04-9.094947017729D-13 5.040000000000D+04
   -1.691503125000D+04 1.286274909973D+00-3.725290298462D-09 0.000000000000D+00
    1.297662792969D+04-1.443446159363D+00-0.000000000000D+00 3.000000000000D+00
    1.401830810547D+04 2.887271881104D+00 0.000000000000D+00 0.000000000000D+00
21 21 10 24 14 15  0.0-2.492116764188D-04-2.728484105319D-12 5.040000000000D+04
    1.397659179688D+03-1.505495071411D+00 9.313225746155D-10 0.000000000000D+00
    1.467800292969D+04 2.427982330322D+00-9.313225746155D-10 4.000000000000D+00
   -2.082321533203D+04 1.606786727905D+00 9.313225746155D-10 0.000000000000D+00
 9 21 10 24 14 15  0.0 1.992471516132D-05 1.818989403546D-12 5.067000000000D+04
   -6.304924316406D+03-3.042387008667D+00-2.793967723846D-09 0.000000000000D+00
    1.072360107422D+04-1.080217361450D-01-0.000000000000D+00-2.000000000000D+00
    2.227889355469D+04-8.163623809814D-01-9.313225746155D-10 0.000000000000D+00
 6 21 10 24 14 45  0.0-1.161824911833D-05-1.818989403546D-12 5.220000000000D+04
    7.701733398438D+02-1.447375297546D+00 9.313225746155D-10 0.000000000000D+00
    1.693465673828D+04-2.169542312622D+00-9.313225746155D-10-4.000000000000D+00
   -1.906698437500D+04-1.989587783813D+00 9.313225746155D-10 0.000000000000D+00
